API VERSION: 1.2
API SOURCE: NASA/JPL Horizons API



*******************************************************************************
Ephemeris / API_USER Mon Oct 30 14:04:02 2023 Pasadena, USA      / Horizons    
*******************************************************************************
Target body name: Moon (301)                      {source: DE441}
Center body name: Earth (399)                     {source: DE441}
Center-site name: GEOCENTRIC
*******************************************************************************
Start time      : A.D. 2034-Jan-01 00:00:00.0000 UT      
Stop  time      : A.D. 2035-Jan-01 00:00:00.0000 UT      
Step-size       : 60 minutes
*******************************************************************************
Target pole/equ : MOON_ME                         {East-longitude positive}
Target radii    : 1737.4, 1737.4, 1737.4 km       {Equator_a, b, pole_c}       
Center geodetic : 0.0, 0.0, -6378.137             {E-lon(deg),Lat(deg),Alt(km)}
Center cylindric: 0.0, 0.0, 0.0                   {E-lon(deg),Dxy(km),Dz(km)}
Center pole/equ : ITRF93                          {East-longitude positive}
Center radii    : 6378.137, 6378.137, 6356.752 km {Equator_a, b, pole_c}       
Target primary  : Earth
Vis. interferer : MOON (R_eq= 1737.400) km        {source: DE441}
Rel. light bend : Sun                             {source: DE441}
Rel. lght bnd GM: 1.3271E+11 km^3/s^2                                          
Atmos refraction: NO (AIRLESS)
RA format       : HMS
Time format     : CAL 
Calendar mode   : Mixed Julian/Gregorian
EOP file        : eop.231027.p240119                                           
EOP coverage    : DATA-BASED 1962-JAN-20 TO 2023-OCT-27. PREDICTS-> 2024-JAN-18
Units conversion: 1 au= 149597870.700 km, c= 299792.458 km/s, 1 day= 86400.0 s 
Table cut-offs 1: Elevation (-90.0deg=NO ),Airmass (>38.000=NO), Daylight (NO )
Table cut-offs 2: Solar elongation (  0.0,180.0=NO ),Local Hour Angle( 0.0=NO )
Table cut-offs 3: RA/DEC angular rate (     0.0=NO )                           
Table format    : Comma Separated Values (spreadsheet)
***********************************************************************************************************************************************
 Date__(UT)__HR:MN, , , R.A._(ICRF), DEC__(ICRF),      Illu%,  ObsSub-LON, ObsSub-LAT,  SunSub-LON, SunSub-LAT,    NP.ang,  NP.dist,     S-T-O,
***********************************************************************************************************************************************
$$SOE
 2034-Oct-14 21:00, , , 15 12 10.77, -13 22 48.0,    6.08462,    0.345044,  -5.659377,  152.151567,   0.770129,   16.1537, -879.534,  151.4439,
 2034-Oct-14 22:00, , , 15 14 09.84, -13 29 13.1,    6.27483,    0.291575,  -5.691424,  151.642694,   0.770841,   15.9886, -879.397,  150.9912,
 2034-Oct-14 23:00, , , 15 16 08.97, -13 35 34.5,    6.46773,    0.238026,  -5.723037,  151.133827,   0.771550,   15.8222, -879.264,  150.5387,
 2034-Oct-15 00:00, , , 15 18 08.19, -13 41 52.3,    6.66329,    0.184400,  -5.754215,  150.624966,   0.772258,   15.6546, -879.134,  150.0863,
 2034-Oct-15 01:00, , , 15 20 07.47, -13 48 06.5,    6.86152,    0.130699,  -5.784956,  150.116111,   0.772963,   15.4858, -879.008,  149.6339,
 2034-Oct-15 02:00, , , 15 22 06.83, -13 54 17.0,    7.06239,    0.076926,  -5.815258,  149.607262,   0.773667,   15.3159, -878.885,  149.1817,
 2034-Oct-15 03:00, , , 15 24 06.27, -14 00 23.7,    7.26590,    0.023084,  -5.845119,  149.098420,   0.774368,   15.1447, -878.765,  148.7295,
 2034-Oct-15 04:00, , , 15 26 05.79, -14 06 26.8,    7.47202,  359.969174,  -5.874537,  148.589583,   0.775068,   14.9724, -878.650,  148.2774,
 2034-Oct-15 05:00, , , 15 28 05.38, -14 12 26.0,    7.68074,  359.915201,  -5.903511,  148.080753,   0.775765,   14.7989, -878.537,  147.8255,
 2034-Oct-15 06:00, , , 15 30 05.05, -14 18 21.5,    7.89206,  359.861165,  -5.932039,  147.571930,   0.776461,   14.6242, -878.429,  147.3736,
 2034-Oct-15 07:00, , , 15 32 04.79, -14 24 13.2,    8.10596,  359.807071,  -5.960119,  147.063113,   0.777155,   14.4485, -878.324,  146.9218,
 2034-Oct-15 08:00, , , 15 34 04.62, -14 30 01.1,    8.32241,  359.752920,  -5.987750,  146.554302,   0.777847,   14.2716, -878.223,  146.4701,
 2034-Oct-15 09:00, , , 15 36 04.52, -14 35 45.0,    8.54142,  359.698716,  -6.014930,  146.045499,   0.778537,   14.0936, -878.125,  146.0185,
 2034-Oct-15 10:00, , , 15 38 04.50, -14 41 25.1,    8.76296,  359.644462,  -6.041657,  145.536702,   0.779225,   13.9145, -878.031,  145.5669,
 2034-Oct-15 11:00, , , 15 40 04.57, -14 47 01.3,    8.98703,  359.590159,  -6.067930,  145.027911,   0.779911,   13.7343, -877.942,  145.1155,
 2034-Oct-15 12:00, , , 15 42 04.71, -14 52 33.6,    9.21360,  359.535811,  -6.093747,  144.519128,   0.780596,   13.5530, -877.856,  144.6641,
 2034-Oct-15 13:00, , , 15 44 04.93, -14 58 01.9,    9.44267,  359.481421,  -6.119107,  144.010351,   0.781279,   13.3707, -877.773,  144.2128,
 2034-Oct-15 14:00, , , 15 46 05.24, -15 03 26.2,    9.67421,  359.426992,  -6.144008,  143.501582,   0.781960,   13.1873, -877.695,  143.7615,
 2034-Oct-15 15:00, , , 15 48 05.62, -15 08 46.5,    9.90822,  359.372526,  -6.168449,  142.992820,   0.782640,   13.0028, -877.621,  143.3103,
 2034-Oct-15 16:00, , , 15 50 06.09, -15 14 02.8,   10.14468,  359.318026,  -6.192428,  142.484064,   0.783317,   12.8174, -877.551,  142.8592,
 2034-Oct-15 17:00, , , 15 52 06.64, -15 19 15.1,   10.38357,  359.263496,  -6.215944,  141.975316,   0.783994,   12.6309, -877.484,  142.4082,
 2034-Oct-15 18:00, , , 15 54 07.27, -15 24 23.2,   10.62489,  359.208938,  -6.238996,  141.466575,   0.784668,   12.4434, -877.422,  141.9572,
 2034-Oct-15 19:00, , , 15 56 07.98, -15 29 27.3,   10.86862,  359.154354,  -6.261581,  140.957842,   0.785341,   12.2549, -877.364,  141.5063,
 2034-Oct-15 20:00, , , 15 58 08.77, -15 34 27.2,   11.11474,  359.099750,  -6.283699,  140.449116,   0.786013,   12.0655, -877.310,  141.0554,
 2034-Oct-15 21:00, , , 16 00 09.65, -15 39 23.0,   11.36323,  359.045126,  -6.305349,  139.940397,   0.786683,   11.8751, -877.260,  140.6046,
 2034-Oct-15 22:00, , , 16 02 10.61, -15 44 14.6,   11.61410,  358.990487,  -6.326528,  139.431686,   0.787351,   11.6837, -877.214,  140.1538,
 2034-Oct-15 23:00, , , 16 04 11.65, -15 49 02.1,   11.86731,  358.935834,  -6.347237,  138.922983,   0.788019,   11.4914, -877.173,  139.7031,
 2034-Oct-16 00:00, , , 16 06 12.77, -15 53 45.3,   12.12285,  358.881173,  -6.367473,  138.414287,   0.788684,   11.2982, -877.136,  139.2524,
 2034-Oct-16 01:00, , , 16 08 13.98, -15 58 24.3,   12.38072,  358.826504,  -6.387235,  137.905599,   0.789348,   11.1040, -877.103,  138.8018,
 2034-Oct-16 02:00, , , 16 10 15.27, -16 02 59.0,   12.64090,  358.771833,  -6.406522,  137.396919,   0.790011,   10.9090, -877.074,  138.3512,
 2034-Oct-16 03:00, , , 16 12 16.64, -16 07 29.5,   12.90336,  358.717161,  -6.425334,  136.888246,   0.790673,   10.7130, -877.050,  137.9006,
 2034-Oct-16 04:00, , , 16 14 18.10, -16 11 55.6,   13.16811,  358.662493,  -6.443667,  136.379582,   0.791333,   10.5162, -877.030,  137.4500,
 2034-Oct-16 05:00, , , 16 16 19.64, -16 16 17.5,   13.43511,  358.607830,  -6.461523,  135.870925,   0.791992,   10.3185, -877.014,  136.9995,
 2034-Oct-16 06:00, , , 16 18 21.26, -16 20 35.0,   13.70436,  358.553177,  -6.478899,  135.362277,   0.792650,   10.1200, -877.003,  136.5490,
 2034-Oct-16 07:00, , , 16 20 22.96, -16 24 48.1,   13.97585,  358.498537,  -6.495794,  134.853636,   0.793306,    9.9207, -876.996,  136.0985,
 2034-Oct-16 08:00, , , 16 22 24.75, -16 28 56.9,   14.24955,  358.443913,  -6.512207,  134.345004,   0.793962,    9.7205, -876.994,  135.6481,
 2034-Oct-16 09:00, , , 16 24 26.62, -16 33 01.2,   14.52546,  358.389308,  -6.528138,  133.836380,   0.794616,    9.5195, -876.996,  135.1976,
 2034-Oct-16 10:00, , , 16 26 28.58, -16 37 01.2,   14.80355,  358.334726,  -6.543585,  133.327765,   0.795269,    9.3177, -877.003,  134.7471,
 2034-Oct-16 11:00, , , 16 28 30.61, -16 40 56.7,   15.08382,  358.280170,  -6.558547,  132.819157,   0.795921,    9.1152, -877.015,  134.2967,
 2034-Oct-16 12:00, , , 16 30 32.73, -16 44 47.7,   15.36624,  358.225644,  -6.573023,  132.310558,   0.796572,    8.9118, -877.031,  133.8462,
 2034-Oct-16 13:00, , , 16 32 34.93, -16 48 34.3,   15.65081,  358.171150,  -6.587012,  131.801968,   0.797222,    8.7078, -877.052,  133.3958,
 2034-Oct-16 14:00, , , 16 34 37.22, -16 52 16.3,   15.93751,  358.116693,  -6.600514,  131.293386,   0.797871,    8.5030, -877.077,  132.9453,
 2034-Oct-16 15:00, , , 16 36 39.59, -16 55 53.9,   16.22632,  358.062276,  -6.613527,  130.784813,   0.798519,    8.2974, -877.107,  132.4948,
 2034-Oct-16 16:00, , , 16 38 42.04, -16 59 26.9,   16.51723,  358.007903,  -6.626050,  130.276248,   0.799166,    8.0912, -877.142,  132.0444,
 2034-Oct-16 17:00, , , 16 40 44.57, -17 02 55.3,   16.81022,  357.953576,  -6.638083,  129.767692,   0.799812,    7.8843, -877.181,  131.5938,
 2034-Oct-16 18:00, , , 16 42 47.18, -17 06 19.2,   17.10528,  357.899300,  -6.649624,  129.259145,   0.800457,    7.6766, -877.226,  131.1433,
 2034-Oct-16 19:00, , , 16 44 49.87, -17 09 38.5,   17.40239,  357.845077,  -6.660674,  128.750607,   0.801102,    7.4684, -877.275,  130.6927,
 2034-Oct-16 20:00, , , 16 46 52.65, -17 12 53.2,   17.70154,  357.790913,  -6.671230,  128.242078,   0.801746,    7.2594, -877.329,  130.2421,
 2034-Oct-16 21:00, , , 16 48 55.50, -17 16 03.2,   18.00271,  357.736810,  -6.681292,  127.733557,   0.802389,    7.0499, -877.387,  129.7915,
 2034-Oct-16 22:00, , , 16 50 58.44, -17 19 08.6,   18.30589,  357.682772,  -6.690860,  127.225046,   0.803031,    6.8397, -877.451,  129.3408,
 2034-Oct-16 23:00, , , 16 53 01.46, -17 22 09.4,   18.61107,  357.628803,  -6.699933,  126.716543,   0.803672,    6.6289, -877.519,  128.8901,
